S-NET D                 
1 43186U 18014G   22105.89715894  .00002591  00000+0  22614-3 0  9991
2 43186  97.6639  12.8315 0012003 139.1819 221.0304 14.97637894229555
S-NET B                 
1 43187U 18014H   22106.49854890  .00002269  00000+0  19864-3 0  9994
2 43187  97.6636  13.3759 0012034 137.3258 222.8901 14.97639144229644
S-NET A                 
1 43188U 18014J   22105.89747755  .00002558  00000+0  22339-3 0  9991
2 43188  97.6640  12.8460 0012002 139.2046 221.0077 14.97636064229557
S-NET C                 
1 43189U 18014K   22105.89809712  .00002479  00000+0  21661-3 0  9993
2 43189  97.6636  12.7765 0011981 139.1059 221.1064 14.97634523228103
FENGMANIU-1 (FMN-1)     
1 43192U 18015A   22106.57464333  .00027453  00000+0  81458-3 0  9999
2 43192  97.5242 250.2075 0012162 248.5671 242.2980 15.34712202233941
SHAONIAN XING           
1 43199U 18015H   22106.57510615  .00017138  00000+0  55533-3 0  9995
2 43199  97.5024 245.9236 0013417 260.0435 230.6084 15.31988724233966
LUOJIA-1 01             
1 43485U 18048B   22106.50071535  .00001290  00000+0  18918-3 0  9993
2 43485  97.9344 188.7562 0012258  45.1130 315.1064 14.77192091208721
SURFSAT                 
1 43614U 18070B   22105.93797993  .00033055  00000+0  58348-3 0  9996
2 43614  93.0273  72.3018 0007338 256.3720 103.6723 15.50242011201366
CP7 (DAVE)              
1 43615U 18070C   22106.16587663  .00026144  00000+0  47400-3 0  9992
2 43615  93.0276  72.2893 0007638 257.0425 102.9983 15.49504388201370
ELFIN-B                 
1 43616U 18070D   22106.38517130  .00047685  00000+0  63926-3 0  9993
2 43616  93.0188  73.2273 0006215 232.1411 127.9291 15.57791936201662
ELFIN-A                 
1 43617U 18070E   22106.45780242  .00049881  00000+0  63620-3 0  9999
2 43617  93.0265  74.4762 0005914 218.4657 141.6187 15.59116295201713
CZ-4B R/B               
1 43656U 18081B   22106.33768716  .00000108  00000+0  50949-4 0  9993
2 43656  99.3860 235.1824 0207819 322.7913  35.9017 14.30537857181479
CUBEBEL-1 (BSUSAT-1)    
1 43666U 18083E   22106.56476951  .00009434  00000+0  41563-3 0  9990
2 43666  97.4277 135.9869 0013756 182.4900 328.6340 15.21951388192067
CHANGSHAGAOXIN (TY 4-01)
1 43669U 18083H   22106.41062542  .00008882  00000+0  40918-3 0  9993
2 43669  97.4215 132.0003 0010065 178.4709 293.5314 15.20474783191879
TEN-KOH                 
1 43677U 18084G   22106.33585274  .00001325  00000+0  13992-3 0  9993
2 43677  97.9535 235.8675 0017140 114.7619 245.5384 14.90897430188424
DIWATA-2B               
1 43678U 18084H   22106.48575845  .00001237  00000+0  12760-3 0  9997
2 43678  97.9589 239.0680 0011015 125.6098 234.6117 14.92040007188619
STARS-AO                
1 43679U 18084J   22105.87745511  .00002164  00000+0  21255-3 0  9998
2 43679  97.9636 240.2159 0010004 132.6912 227.5151 14.93220693188608
AUTCUBE 2               
1 43681U 18084K   22106.33819736  .00001621  00000+0  16286-3 0  9999
2 43681  97.9599 239.4231 0010487 126.2215 233.9975 14.92659202188583
IRVINE01                
1 43693U 18088D   22106.42862865  .00024766  00000+0  76300-3 0  9995
2 43693  85.0340 352.7602 0012688 354.6147   5.4963 15.33410473190702
ES'HAIL 2               
1 43700U 18090A   22105.90327299  .00000148  00000+0  00000+0 0  9994
2 43700   0.0147 155.3009 0002582 261.4981 138.2028  1.00272389 12402
FACSAT-1                
1 43721U 18096C   22106.45495275  .00017704  00000+0  54501-3 0  9999
2 43721  97.3535 186.4473 0013621 273.4620 215.1282 15.33613618188466
CENTAURI-2              
1 43722U 18096D   22106.48056874  .00018410  00000+0  52408-3 0  9990
2 43722  97.3580 188.1361 0013202 268.8550  91.1182 15.36080481188557
3CAT-1                  
1 43728U 18096K   22106.48899646  .00017941  00000+0  50809-3 0  9999
2 43728  97.3591 188.8756 0012772 271.6897  88.2884 15.36254076188590
INNOSAT-2               
1 43738U 18096V   22106.55580351  .00047866  00000+0  10755-2 0  9992
2 43738  97.3670 194.3855 0016550 259.5803 217.8563 15.43059752188946
REAKTOR HELLO WORLD     
1 43743U 18096AA  22106.52623566  .00010108  00000+0  32624-3 0  9990
2 43743  97.3552 186.7265 0014286 279.9584  80.0046 15.32230617188470
ELYSIUM STAR 2 & LFF    
1 43760U 18099C   22106.48735474  .00005453  00000+0  46737-3 0  9996
2 43760  97.6351 176.3815 0015098 110.0092 250.2758 14.97850431183845
2018-099D               
1 43761U 18099D   22105.78897024  .00001152  00000+0  10844-3 0  9991
2 43761  97.6262 174.1818 0015657 117.7288 242.5534 14.95680168183659
AISTECHSAT 2            
1 43768U 18099L   22106.14837079  .00001886  00000+0  17525-3 0  9990
2 43768  97.6226 173.1135 0012885 114.3906 245.8661 14.95470301183379
FOX-1CLIFF (AO-95)      
1 43770U 18099N   22106.46390929  .00003156  00000+0  28530-3 0  9996
2 43770  97.6253 174.4238 0015878 121.5073 238.7702 14.96066123183742
RANGE-A                 
1 43772U 18099Q   22106.14806665  .00003932  00000+0  34945-3 0  9991
2 43772  97.6369 175.6502 0015595 109.8585 250.4319 14.96596813183718
RANGE-B                 
1 43773U 18099R   22106.17036351  .00001558  00000+0  14455-3 0  9998
2 43773  97.6180 173.1139 0014620 110.6934 249.5856 14.95759707183688
2018-099T               
1 43775U 18099T   22106.16206108  .00001042  00000+0  98309-4 0  9997
2 43775  97.6259 174.2855 0015820 114.0202 246.2677 14.95765617183685
MOVE-II                 
1 43780U 18099Y   22106.47212833  .00005023  00000+0  43900-3 0  9998
2 43780  97.6292 175.4135 0014974 117.4793 242.7953 14.97123200183780
SNUSAT-2                
1 43782U 18099AA  22105.91653750  .00002745  00000+0  24773-3 0  9990
2 43782  97.6252 174.3345 0013805 110.4662 249.8043 14.96255649183688
SNUGLITE                
1 43784U 18099AC  22106.16291683  .00002041  00000+0  18451-3 0  9998
2 43784  97.6221 174.2278 0016078 115.7895 244.4988 14.96440254183745
ITASAT 1                
1 43786U 18099AE  22106.46422860  .00002676  00000+0  24144-3 0  9996
2 43786  97.6277 175.3069 0016548 115.1216 245.1725 14.96262958183785
KAZSCISAT-1             
1 43787U 18099AF  22106.45780511  .00004108  00000+0  35920-3 0  9992
2 43787  97.6193 174.4554 0015412 112.0075 248.2786 14.97208146183826
EAGLET-I                
1 43790U 18099AJ  22106.50152771  .00001253  00000+0  11507-3 0  9996
2 43790  97.6272 175.8633 0014403 117.4157 242.8531 14.96497614183524
ESEO                    
1 43792U 18099AL  22105.87979125  .00001322  00000+0  12255-3 0  9995
2 43792  97.6232 174.5604 0014714 116.3723 243.9011 14.96050743183475
CSIM-FD                 
1 43793U 18099AM  22105.73867675  .00005440  00000+0  46712-3 0  9997
2 43793  97.6295 175.5185 0014709 113.4321 246.8450 14.97779908183499
ASTROCAST 0.1           
1 43798U 18099AS  22106.18535609  .00003971  00000+0  34886-3 0  9997
2 43798  97.6277 175.9331 0013303  99.9177 260.3548 14.97062582183792
JY1SAT (JO-97)          
1 43803U 18099AX  22106.16655288  .00002261  00000+0  20264-3 0  9994
2 43803  97.6242 174.7596 0016049 115.0548 245.2342 14.96672926183751
SUOMI-100               
1 43804U 18099AY  22106.18080864  .00002602  00000+0  23293-3 0  9993
2 43804  97.6230 174.7069 0016114 115.9357 244.3527 14.96596466183764
AL-FARABI 2             
1 43805U 18099AZ  22105.78807751  .00003450  00000+0  30376-3 0  9993
2 43805  97.6252 174.7427 0016110 117.0624 243.2264 14.97037713183721
CENTAURI-1              
1 43809U 18099BD  22106.13770477  .00002785  00000+0  24998-3 0  9994
2 43809  97.6252 174.9903 0016714 116.2614 244.0328 14.96424431183452
CHOMPTT                 
1 43855U 18104G   22106.45048015  .00008209  00000+0  31300-3 0  9995
2 43855  85.0318  92.4498 0018978 105.5193 254.8149 15.26340557185268
DAVINCI                 
1 43857U 18104J   22106.42209227  .00026065  00000+0  81443-3 0  9991
2 43857  85.0252  91.0716 0016025 121.5553 238.7263 15.32910218185345
UWE-4                   
1 43880U 18111E   22105.74301877  .00003233  00000+0  28031-3 0  9999
2 43880  97.6719  13.1537 0012550 164.0236 196.1385 14.97723846180316
ZACUBE-2                
1 43907U 18111AH  22106.59034883  .00005089  00000+0  19577-3 0  9999
2 43907  97.1993 355.1033 0018876 302.9588 121.3402 15.26665502183854
MICRODRAGON             
1 43935U 19003D   22106.36563962  .00005719  00000+0  23117-3 0  9996
2 43935  97.1437 139.3046 0018071  40.6964 319.5621 15.24961244180238
AOBA VELOX-IV           
1 43940U 19003J   22106.38386751  .00021332  00000+0  65446-3 0  9993
2 43940  97.1355 144.2062 0018954  14.6530 345.5258 15.33591275180605
M6P                     
1 44109U 19018AF  22105.80351120  .00016525  00000+0  43363-3 0  9997
2 44109  97.3976 189.4028 0049194 354.2065   5.8604 15.37460581169824
FORMOSAT 7-4            
1 44350U 19036M   22106.34685671  .00003853  00000+0  21688-3 0  9992
2 44350  23.9994  90.6374 0006130  63.5652 296.5480 15.08864055154141
PAINANI 1               
1 44365U 19037A   22106.18655460  .00028467  00000+0  50858-3 0  9993
2 44365  45.0021   3.6008 0008496 198.4018 161.6567 15.49539528157568
ACRUX 1                 
1 44369U 19037E   22105.97449410  .00129061  00000+0  10524-2 0  9996
2 44369  44.9987 317.3354 0016167 233.1837 126.7579 15.69355467158049
METEOR-M2 2             
1 44387U 19038A   22106.51740902  .00000028  00000+0  31665-4 0  9990
2 44387  98.7160  67.8143 0002442  86.5399 273.6048 14.23705692144592
VDNH-80                 
1 44392U 19038G   22106.48396404  .00009266  00000+0  48296-3 0  9996
2 44392  97.6279  76.0184 0019780 353.1796 128.1298 15.16037177153456
D-STAR ONE (LIGHTSAT)   
1 44393U 19038H   22106.47429745  .00008423  00000+0  43959-3 0  9996
2 44393  97.6307  75.8827 0019750 353.5670   6.5306 15.16021677153640
AMGU-1 (AMURSAT)        
1 44394U 19038J   22106.55116918  .00010433  00000+0  54144-3 0  9993
2 44394  97.6276  75.9026 0019798 354.2380   5.8619 15.16153992153652
